[
  {
    "CCSDS_OMM_VERS": "3.0",
    "COMMENT": "GENERATED VIA SPACE-TRACK.ORG API",
    "CREATION_DATE": "2026-02-19T19:16:27",
    "ORIGINATOR": "18 SPCS",
    "OBJECT_NAME": "SHIJIAN 6 05B (SJ-6 05B)",
    "OBJECT_ID": "2021-122B",
    "CENTER_NAME": "EARTH",
    "REF_FRAME": "TEME",
    "TIME_SYSTEM": "UTC",
    "MEAN_ELEMENT_THEORY": "SGP4",
    "EPOCH": "2026-02-19T16:22:14.626272",
    "MEAN_MOTION": "15.11335032",
    "ECCENTRICITY": "0.00033590",
    "INCLINATION": "97.3698",
    "RA_OF_ASC_NODE": "35.3944",
    "ARG_OF_PERICENTER": "86.1025",
    "MEAN_ANOMALY": "274.0589",
    "EPHEMERIS_TYPE": "0",
    "CLASSIFICATION_TYPE": "U",
    "NORAD_CAT_ID": "49962",
    "ELEMENT_SET_NO": "999",
    "REV_AT_EPOCH": "23199",
    "BSTAR": "0.00014300000000",
    "MEAN_MOTION_DOT": "0.00002349",
    "MEAN_MOTION_DDOT": "0.0000000000000",
    "SEMIMAJOR_AXIS": "6910.265",
    "PERIOD": "95.280",
    "APOAPSIS": "534.451",
    "PERIAPSIS": "529.808",
    "OBJECT_TYPE": "PAYLOAD",
    "RCS_SIZE": "LARGE",
    "COUNTRY_CODE": "PRC",
    "LAUNCH_DATE": "2021-12-10",
    "SITE": "JSC",
    "DECAY_DATE": null,
    "FILE": "5039997",
    "GP_ID": "313188002",
    "TLE_LINE0": "0 SHIJIAN 6 05B (SJ-6 05B)",
    "TLE_LINE1": "1 49962U 21122B   26050.68211373  .00002349  00000-0  14300-3 0  9991",
    "TLE_LINE2": "2 49962  97.3698  35.3944 0003359  86.1025 274.0589 15.11335032231997"
  },
  {
    "CCSDS_OMM_VERS": "3.0",
    "COMMENT": "GENERATED VIA SPACE-TRACK.ORG API",
    "CREATION_DATE": "2026-02-19T19:06:29",
    "ORIGINATOR": "18 SPCS",
    "OBJECT_NAME": "SHIYAN 30 01",
    "OBJECT_ID": "2025-222A",
    "CENTER_NAME": "EARTH",
    "REF_FRAME": "TEME",
    "TIME_SYSTEM": "UTC",
    "MEAN_ELEMENT_THEORY": "SGP4",
    "EPOCH": "2026-02-19T16:19:12.186624",
    "MEAN_MOTION": "14.93063236",
    "ECCENTRICITY": "0.00040620",
    "INCLINATION": "34.9870",
    "RA_OF_ASC_NODE": "246.7856",
    "ARG_OF_PERICENTER": "83.6730",
    "MEAN_ANOMALY": "276.4437",
    "EPHEMERIS_TYPE": "0",
    "CLASSIFICATION_TYPE": "U",
    "NORAD_CAT_ID": "65851",
    "ELEMENT_SET_NO": "999",
    "REV_AT_EPOCH": "2147",
    "BSTAR": "0.00019858000000",
    "MEAN_MOTION_DOT": "0.00002080",
    "MEAN_MOTION_DDOT": "0.0000000000000",
    "SEMIMAJOR_AXIS": "6966.528",
    "PERIOD": "96.446",
    "APOAPSIS": "591.223",
    "PERIAPSIS": "585.563",
    "OBJECT_TYPE": "PAYLOAD",
    "RCS_SIZE": null,
    "COUNTRY_CODE": "PRC",
    "LAUNCH_DATE": "2025-09-29",
    "SITE": "XSC",
    "DECAY_DATE": null,
    "FILE": "5039995",
    "GP_ID": "313187977",
    "TLE_LINE0": "0 SHIYAN 30 01",
    "TLE_LINE1": "1 65851U 25222A   26050.68000216  .00002080  00000-0  19858-3 0  9998",
    "TLE_LINE2": "2 65851  34.9870 246.7856 0004062  83.6730 276.4437 14.93063236 21479"
  },
  {
    "CCSDS_OMM_VERS": "3.0",
    "COMMENT": "GENERATED VIA SPACE-TRACK.ORG API",
    "CREATION_DATE": "2026-02-19T19:06:29",
    "ORIGINATOR": "18 SPCS",
    "OBJECT_NAME": "COSMOS 2576",
    "OBJECT_ID": "2024-092A",
    "CENTER_NAME": "EARTH",
    "REF_FRAME": "TEME",
    "TIME_SYSTEM": "UTC",
    "MEAN_ELEMENT_THEORY": "SGP4",
    "EPOCH": "2026-02-19T16:18:39.635424",
    "MEAN_MOTION": "15.27180720",
    "ECCENTRICITY": "0.00047050",
    "INCLINATION": "97.4250",
    "RA_OF_ASC_NODE": "167.9385",
    "ARG_OF_PERICENTER": "222.7372",
    "MEAN_ANOMALY": "137.3502",
    "EPHEMERIS_TYPE": "0",
    "CLASSIFICATION_TYPE": "U",
    "NORAD_CAT_ID": "59773",
    "ELEMENT_SET_NO": "999",
    "REV_AT_EPOCH": "9850",
    "BSTAR": "0.00047872000000",
    "MEAN_MOTION_DOT": "0.00012694",
    "MEAN_MOTION_DDOT": "0.0000000000000",
    "SEMIMAJOR_AXIS": "6862.382",
    "PERIOD": "94.291",
    "APOAPSIS": "487.476",
    "PERIAPSIS": "481.018",
    "OBJECT_TYPE": "PAYLOAD",
    "RCS_SIZE": "LARGE",
    "COUNTRY_CODE": "CIS",
    "LAUNCH_DATE": "2024-05-16",
    "SITE": "PKMTR",
    "DECAY_DATE": null,
    "FILE": "5039995",
    "GP_ID": "313187974",
    "TLE_LINE0": "0 COSMOS 2576",
    "TLE_LINE1": "1 59773U 24092A   26050.67962541  .00012694  00000-0  47872-3 0  9994",
    "TLE_LINE2": "2 59773  97.4250 167.9385 0004705 222.7372 137.3502 15.27180720 98506"
  },
  {
    "CCSDS_OMM_VERS": "3.0",
    "COMMENT": "GENERATED VIA SPACE-TRACK.ORG API",
    "CREATION_DATE": "2026-02-19T19:06:29",
    "ORIGINATOR": "18 SPCS",
    "OBJECT_NAME": "SHIYAN 30 02",
    "OBJECT_ID": "2025-222B",
    "CENTER_NAME": "EARTH",
    "REF_FRAME": "TEME",
    "TIME_SYSTEM": "UTC",
    "MEAN_ELEMENT_THEORY": "SGP4",
    "EPOCH": "2026-02-19T16:18:11.662560",
    "MEAN_MOTION": "14.93065674",
    "ECCENTRICITY": "0.00036570",
    "INCLINATION": "34.9956",
    "RA_OF_ASC_NODE": "246.8641",
    "ARG_OF_PERICENTER": "98.5211",
    "MEAN_ANOMALY": "261.5908",
    "EPHEMERIS_TYPE": "0",
    "CLASSIFICATION_TYPE": "U",
    "NORAD_CAT_ID": "65852",
    "ELEMENT_SET_NO": "999",
    "REV_AT_EPOCH": "2145",
    "BSTAR": "0.00019966000000",
    "MEAN_MOTION_DOT": "0.00002092",
    "MEAN_MOTION_DDOT": "0.0000000000000",
    "SEMIMAJOR_AXIS": "6966.520",
    "PERIOD": "96.446",
    "APOAPSIS": "590.933",
    "PERIAPSIS": "585.838",
    "OBJECT_TYPE": "PAYLOAD",
    "RCS_SIZE": null,
    "COUNTRY_CODE": "PRC",
    "LAUNCH_DATE": "2025-09-29",
    "SITE": "XSC",
    "DECAY_DATE": null,
    "FILE": "5039995",
    "GP_ID": "313187983",
    "TLE_LINE0": "0 SHIYAN 30 02",
    "TLE_LINE1": "1 65852U 25222B   26050.67930165  .00002092  00000-0  19966-3 0  9996",
    "TLE_LINE2": "2 65852  34.9956 246.8641 0003657  98.5211 261.5908 14.93065674 21450"
  },
  {
    "CCSDS_OMM_VERS": "3.0",
    "COMMENT": "GENERATED VIA SPACE-TRACK.ORG API",
    "CREATION_DATE": "2026-02-19T19:06:29",
    "ORIGINATOR": "18 SPCS",
    "OBJECT_NAME": "COSMOS 2583",
    "OBJECT_ID": "2025-026C",
    "CENTER_NAME": "EARTH",
    "REF_FRAME": "TEME",
    "TIME_SYSTEM": "UTC",
    "MEAN_ELEMENT_THEORY": "SGP4",
    "EPOCH": "2026-02-19T16:18:08.547840",
    "MEAN_MOTION": "14.94682117",
    "ECCENTRICITY": "0.00095940",
    "INCLINATION": "81.9969",
    "RA_OF_ASC_NODE": "194.3502",
    "ARG_OF_PERICENTER": "83.1351",
    "MEAN_ANOMALY": "277.0960",
    "EPHEMERIS_TYPE": "0",
    "CLASSIFICATION_TYPE": "U",
    "NORAD_CAT_ID": "62904",
    "ELEMENT_SET_NO": "999",
    "REV_AT_EPOCH": "5664",
    "BSTAR": "0.00027654000000",
    "MEAN_MOTION_DOT": "0.00003024",
    "MEAN_MOTION_DDOT": "0.0000000000000",
    "SEMIMAJOR_AXIS": "6961.497",
    "PERIOD": "96.342",
    "APOAPSIS": "590.040",
    "PERIAPSIS": "576.683",
    "OBJECT_TYPE": "PAYLOAD",
    "RCS_SIZE": "MEDIUM",
    "COUNTRY_CODE": "CIS",
    "LAUNCH_DATE": "2025-02-05",
    "SITE": "PKMTR",
    "DECAY_DATE": null,
    "FILE": "5039995",
    "GP_ID": "313187981",
    "TLE_LINE0": "0 COSMOS 2583",
    "TLE_LINE1": "1 62904U 25026C   26050.67926560  .00003024  00000-0  27654-3 0  9996",
    "TLE_LINE2": "2 62904  81.9969 194.3502 0009594  83.1351 277.0960 14.94682117 56642"
  },
  {
    "CCSDS_OMM_VERS": "3.0",
    "COMMENT": "GENERATED VIA SPACE-TRACK.ORG API",
    "CREATION_DATE": "2026-02-19T19:06:29",
    "ORIGINATOR": "18 SPCS",
    "OBJECT_NAME": "COSMOS 2581",
    "OBJECT_ID": "2025-026A",
    "CENTER_NAME": "EARTH",
    "REF_FRAME": "TEME",
    "TIME_SYSTEM": "UTC",
    "MEAN_ELEMENT_THEORY": "SGP4",
    "EPOCH": "2026-02-19T16:18:01.760256",
    "MEAN_MOTION": "14.94654086",
    "ECCENTRICITY": "0.00113200",
    "INCLINATION": "81.9966",
    "RA_OF_ASC_NODE": "194.3502",
    "ARG_OF_PERICENTER": "86.8264",
    "MEAN_ANOMALY": "273.4250",
    "EPHEMERIS_TYPE": "0",
    "CLASSIFICATION_TYPE": "U",
    "NORAD_CAT_ID": "62902",
    "ELEMENT_SET_NO": "999",
    "REV_AT_EPOCH": "5666",
    "BSTAR": "0.00009460900000",
    "MEAN_MOTION_DOT": "0.00001050",
    "MEAN_MOTION_DDOT": "0.0000000000000",
    "SEMIMAJOR_AXIS": "6961.584",
    "PERIOD": "96.343",
    "APOAPSIS": "591.329",
    "PERIAPSIS": "575.568",
    "OBJECT_TYPE": "PAYLOAD",
    "RCS_SIZE": "LARGE",
    "COUNTRY_CODE": "CIS",
    "LAUNCH_DATE": "2025-02-05",
    "SITE": "PKMTR",
    "DECAY_DATE": null,
    "FILE": "5039995",
    "GP_ID": "313187980",
    "TLE_LINE0": "0 COSMOS 2581",
    "TLE_LINE1": "1 62902U 25026A   26050.67918704  .00001050  00000-0  94609-4 0  9997",
    "TLE_LINE2": "2 62902  81.9966 194.3502 0011320  86.8264 273.4250 14.94654086 56668"
  },
  {
    "CCSDS_OMM_VERS": "3.0",
    "COMMENT": "GENERATED VIA SPACE-TRACK.ORG API",
    "CREATION_DATE": "2026-02-19T19:06:29",
    "ORIGINATOR": "18 SPCS",
    "OBJECT_NAME": "COSMOS 2582",
    "OBJECT_ID": "2025-026B",
    "CENTER_NAME": "EARTH",
    "REF_FRAME": "TEME",
    "TIME_SYSTEM": "UTC",
    "MEAN_ELEMENT_THEORY": "SGP4",
    "EPOCH": "2026-02-19T16:18:01.564128",
    "MEAN_MOTION": "14.94631837",
    "ECCENTRICITY": "0.00113030",
    "INCLINATION": "81.9965",
    "RA_OF_ASC_NODE": "194.3500",
    "ARG_OF_PERICENTER": "86.6433",
    "MEAN_ANOMALY": "273.6079",
    "EPHEMERIS_TYPE": "0",
    "CLASSIFICATION_TYPE": "U",
    "NORAD_CAT_ID": "62903",
    "ELEMENT_SET_NO": "999",
    "REV_AT_EPOCH": "5665",
    "BSTAR": "0.00014630000000",
    "MEAN_MOTION_DOT": "0.00001609",
    "MEAN_MOTION_DDOT": "0.0000000000000",
    "SEMIMAJOR_AXIS": "6961.653",
    "PERIOD": "96.345",
    "APOAPSIS": "591.386",
    "PERIAPSIS": "575.649",
    "OBJECT_TYPE": "PAYLOAD",
    "RCS_SIZE": "MEDIUM",
    "COUNTRY_CODE": "CIS",
    "LAUNCH_DATE": "2025-02-05",
    "SITE": "PKMTR",
    "DECAY_DATE": null,
    "FILE": "5039995",
    "GP_ID": "313187975",
    "TLE_LINE0": "0 COSMOS 2582",
    "TLE_LINE1": "1 62903U 25026B   26050.67918477  .00001609  00000-0  14630-3 0  9990",
    "TLE_LINE2": "2 62903  81.9965 194.3500 0011303  86.6433 273.6079 14.94631837 56652"
  }
]